STARLINK-30102
1 57434U 23105E   26061.16668981  .00679540  00000+0  30731-1 0  9999
2 57434  43.0006 302.0060 0001682 271.8559 142.9845 15.17908103  5770
STARLINK-30153
1 57510U 23113R   26061.16668981  .01250222  00000+0  55993-1 0  9993
2 57510  43.0006  57.8757 0002060 275.8914  51.2658 15.17933681  5822
STARLINK-30338
1 57718U 23129W   26061.16668981  .01117676  00000+0  49734-1 0  9991
2 57718  43.0003 160.3616 0001332 274.3026  35.4172 15.18015358  5729
STARLINK-30375
1 57732U 23131A   26061.16668981  .01973040  00000+0  85960-1 0  9996
2 57732  42.9998 199.6684 0001055 300.3856 115.1164 15.17958652  5818
STARLINK-30818
1 58217U 23170M   26061.16668981  .02024141  00000+0  87856-1 0  9994
2 58217  42.9998 236.0883 0001307 297.4276 153.9861 15.17996042  5815
STARLINK-30888
1 58370U 23177V   26061.16668981  .02437806  00000+0  10556+0 0  9998
2 58370  43.0001  32.5111 0001860 311.0254  42.3563 15.17990847  5769
STARLINK-30943
1 58449U 23183N   26061.16668981  .01422016  00000+0  63006-1 0  9998
2 58449  42.9994  57.9652 0001604 327.1656  76.7950 15.17931315  5762
STARLINK-30962
1 58458U 23183X   26061.16668981  .02336870  00000+0  10158+0 0  9999
2 58458  42.9991  83.2038 0001636 259.5628 123.7143 15.18016042  5816
